[{"OBJECT_NAME":"STARLINK-1817","OBJECT_ID":"2020-073AX","EPOCH":"2026-03-09T16:52:26.233824","MEAN_MOTION":15.6140576,"ECCENTRICITY":0.00043318,"INCLINATION":53.0491,"RA_OF_ASC_NODE":217.2383,"ARG_OF_PERICENTER":243.125,"MEAN_ANOMALY":116.9321,"EPHEMERIS_TYPE":0,"CLASSIFICATION_TYPE":"U","NORAD_CAT_ID":46715,"ELEMENT_SET_NO":999,"REV_AT_EPOCH":29747,"BSTAR":0.00092097073,"MEAN_MOTION_DOT":0.0008032,"MEAN_MOTION_DDOT":0},{"OBJECT_NAME":"STARLINK-36365","OBJECT_ID":"2026-022U","EPOCH":"2026-03-09T22:00:01.999584","MEAN_MOTION":15.72590104,"ECCENTRICITY":0.00017297,"INCLINATION":97.2853,"RA_OF_ASC_NODE":102.9404,"ARG_OF_PERICENTER":72.788,"MEAN_ANOMALY":45.9093,"EPHEMERIS_TYPE":0,"CLASSIFICATION_TYPE":"U","NORAD_CAT_ID":67666,"ELEMENT_SET_NO":999,"REV_AT_EPOCH":608,"BSTAR":-0.016261278,"MEAN_MOTION_DOT":-0.01889886,"MEAN_MOTION_DDOT":0}]
